STARLINK-4172           
1 53284C 22086AU  22280.09145833 -.01143239  00000-0 -23591-1 0  2806
2 53284  53.2177  35.9295 0001772  35.8555 106.9753 15.46429005    18
STARLINK-4173           
1 53285C 22086AV  22279.83173611 -.01129160  00000-0 -21701-1 0  2798
2 53285  53.2172  37.2227 0001913  23.7123 121.3787 15.48478550    17
STARLINK-4165           
1 53286C 22086AW  22280.09006944 -.01151358  00000-0 -23043-1 0  2800
2 53286  53.2178  35.9705 0001823  35.0344 106.8211 15.47328832    17
STARLINK-4107           
1 53287C 22086AX  22279.83104167 -.01191021  00000-0 -22400-1 0  2792
2 53287  53.2172  37.2491 0004486 278.4067 225.4481 15.49153785    14
STARLINK-4162           
1 53288C 22086AY  22279.84701389 -.01193067  00000-0 -23164-1 0  2793
2 53288  53.2173  37.1376 0005873 268.9636 319.6703 15.48232236    15
STARLINK-4176           
1 53289C 22086AZ  22279.77687500 -.01190752  00000-0 -10448-1 0  2793
2 53289  53.2166  35.9067 0000403 348.3815 228.0693 15.69376747    17
STARLINK-4149           
1 53290C 22086BA  22280.08937500 -.01185175  00000-0 -22984-1 0  2802
2 53290  53.2178  36.0077 0005368 274.5745 228.8954 15.48261181    12
STARLINK-4166           
1 53291C 22086BB  22280.09284722 -.01246695  00000-0 -11270-1 0  2806
2 53291  53.2171  34.3492 0001000  36.5911 166.2845 15.68701789    17
STARLINK-4159           
1 53292C 22086BC  22280.08868056 -.01181373  00000-0 -22518-1 0  2802
2 53292  53.2179  36.0303 0001823  17.2230 125.2282 15.48769123    13
STARLINK-4148           
1 53293C 22086BD  22280.07895833 -.00013901  00000-0 -98648-4 0  2805
2 53293  53.2152  34.4103 0004160   0.7535 139.4856 15.73249061    13
STARLINK-4146           
1 53294C 22086BE  22279.82548611 -.00011165  00000-0 -79308-4 0  2796
2 53294  53.2164  35.6635 0003804 353.8215 150.7548 15.73225953    19
STARLINK-4522           
1 53388C 22097A   22280.09006944 -.00010138  00000-0 -63552-3 0  2805
2 53388  53.2173 333.8096 0002106  33.3242 248.5631 15.08858167    17
STARLINK-4523           
1 53389C 22097B   22280.09076389 -.00014941  00000-0 -93710-3 0  2801
2 53389  53.2179 333.7958 0002128  31.4935 294.2550 15.08845597    13
STARLINK-4517           
1 53390C 22097C   22280.09215278 -.00001437  00000-0 -90067-4 0  2804
2 53390  53.2187 333.7899 0002291  27.5262 285.7104 15.08846327    10
STARLINK-4521           
1 53391C 22097D   22280.08381944  .00000677  00000-0  42463-4 0  2808
2 53391  53.2185 333.8278 0001986  38.0122 269.9111 15.08844136    11
STARLINK-4535           
1 53392C 22097E   22280.08729167 -.00018066  00000-0 -11324-2 0  2805
2 53392  53.2179 333.8102 0002066  37.5570 329.1686 15.08871877    10
STARLINK-4530           
1 53393C 22097F   22280.08937500  .00006806  00000-0  42702-3 0  2800
2 53393  53.2178 333.7997 0002519  35.6267 322.6525 15.08809012    18
STARLINK-4544           
1 53394C 22097G   22280.08659722 -.01150973  00000-0 -41229-1 0  2807
2 53394  53.2172 324.2202 0001929  33.9089 186.5355 15.29366805    13
STARLINK-4534           
1 53395C 22097H   22280.08451389 -.00002395  00000-0 -15018-3 0  2809
2 53395  53.2180 333.8218 0001998  35.2657 336.4595 15.08840764    18
STARLINK-4524           
1 53396C 22097J   22280.08520833  .00000007  00000-0  43882-6 0  2800
2 53396  53.2185 333.8047 0002028  29.4101  66.0865 15.08836213    18
STARLINK-4515           
1 53397C 22097K   22280.09215278  .00004552  00000-0  28550-3 0  2807
2 53397  53.2179 333.7878 0001763  38.6911  34.5420 15.08826535    12
STARLINK-4512           
1 53398C 22097L   22280.09145833 -.00000983  00000-0 -61625-4 0  2804
2 53398  53.2175 333.7736 0001730  45.3614 124.1156 15.08842154    18
STARLINK-4528           
1 53399C 22097M   22280.08520833 -.00004108  00000-0 -25754-3 0  2806
2 53399  53.2182 333.8095 0001675  46.5777  28.8793 15.08852132    11
STARLINK-4520           
1 53400C 22097N   22280.08937500 -.00002922  00000-0 -18324-3 0  2809
2 53400  53.2176 333.7791 0001798  42.1381 176.0045 15.08843208    18
STARLINK-4525           
1 53401C 22097P   22280.08729167  .00002650  00000-0  16615-3 0  2805
2 53401  53.2189 333.7948 0001584  44.3619  82.4428 15.08838230    12
STARLINK-4499           
1 53402C 22097Q   22280.08937500 -.00011192  00000-0 -70183-3 0  2801
2 53402  53.2181 333.7794 0001727  43.1663 194.9802 15.08850236    14
STARLINK-4507           
1 53403C 22097R   22280.08659722 -.00001315  00000-0 -82430-4 0  2804
2 53403  53.2176 333.7940 0001675  51.7225 106.1279 15.08843066    19
STARLINK-4509           
1 53404C 22097S   22280.08868056 -.01136550  00000-0 -37359-1 0  2805
2 53404  53.2162 324.7445 0001717  35.1928 184.8494 15.32140244    15
STARLINK-4510           
1 53405C 22097T   22280.08868056 -.00006591  00000-0 -41327-3 0  2808
2 53405  53.2198 333.7854 0001567  50.9926 203.3771 15.08849720    18
STARLINK-4533           
1 53406C 22097U   22280.08104167 -.01137744  00000-0 -35698-1 0  2803
2 53406  53.2169 324.8212 0001901  34.5870 187.4057 15.33630024    16
STARLINK-4537           
1 53407C 22097V   22280.08451389 -.00011564  00000-0 -82086-4 0  2801
2 53407  53.2166 321.5837 0004025   0.1342  96.3489 15.73240969    10
STARLINK-4491           
1 53408C 22097W   22280.08659722 -.01163819  00000-0 -37549-1 0  2806
2 53408  53.2165 324.7689 0001689  30.8155 195.8905 15.32766213    13
STARLINK-4490           
1 53409C 22097X   22280.08312500 -.00010208  00000-0 -72527-4 0  2807
2 53409  53.2173 321.5874 0003538   6.7681  83.1099 15.73220509    16
STARLINK-4492           
1 53410C 22097Y   22280.08381944 -.01149644  00000-0 -36748-1 0  2807
2 53410  53.2166 324.7905 0001706  39.4880 180.6831 15.33049034    14
STARLINK-4497           
1 53411C 22097Z   22280.08729167 -.01139635  00000-0 -37119-1 0  2803
2 53411  53.2165 324.7565 0001855  35.0284 186.6222 15.32437105    10
STARLINK-4496           
1 53412C 22097AA  22280.07895833 -.01149080  00000-0 -35711-1 0  2808
2 53412  53.2166 324.8396 0001811  36.0696 182.7617 15.33945243    18
STARLINK-4500           
1 53413C 22097AB  22280.08243056 -.01161930  00000-0 -36791-1 0  2801
2 53413  53.2166 324.8058 0001881  30.7415 190.3856 15.33363793    15
STARLINK-4304           
1 53414C 22097AC  22280.07965278 -.01170638  00000-0 -36040-1 0  2800
2 53414  53.2169 324.8453 0001566  12.3338 218.5329 15.34266931    13
STARLINK-4479           
1 53415C 22097AD  22280.07618056 -.01145336  00000-0 -34934-1 0  2807
2 53415  53.2168 324.8693 0001513  48.6458 171.1511 15.34536926    17
STARLINK-4480           
1 53416C 22097AE  22280.07131944 -.01158609  00000-0 -34432-1 0  2804
2 53416  53.2170 324.9123 0001716  39.3648 175.1214 15.35371039    10
STARLINK-4484           
1 53417C 22097AF  22280.07687500 -.01165188  00000-0 -35205-1 0  2808
2 53417  53.2167 324.8737 0001729  40.4353 191.1247 15.34855777    16
STARLINK-4481           
1 53418C 22097AG  22280.07270833 -.00025089  00000-0 -17824-3 0  2809
2 53418  53.2163 321.5210 0003928   2.0264  87.3668 15.73235689    11
STARLINK-4476           
1 53419C 22097AH  22280.07548611 -.01157219  00000-0 -34636-1 0  2802
2 53419  53.2171 324.8871 0001816  36.5078 195.1909 15.35144861    14
STARLINK-4552           
1 53420C 22097AJ  22280.07201389 -.01153797  00000-0 -33588-1 0  2804
2 53420  53.2169 324.9261 0001751  33.5149 202.3859 15.36015645    14
STARLINK-4545           
1 53421C 22097AK  22280.06576389 -.01149003  00000-0 -34062-1 0  2802
2 53421  53.2171 324.9394 0001942  32.0371 154.1201 15.35438498    17
STARLINK-4546           
1 53422C 22097AL  22280.06854167 -.01163375  00000-0 -33223-1 0  2802
2 53422  53.2170 324.9582 0001477  50.7280 180.3300 15.36626918    13
STARLINK-4539           
1 53423C 22097AM  22280.06437500 -.01144308  00000-0 -33605-1 0  2800
2 53423  53.2170 324.9540 0001545  48.3693 137.6408 15.35730622    16
STARLINK-4532           
1 53424C 22097AN  22280.09145833 -.01161268  00000-0 -32596-1 0  2801
2 53424  53.2173 324.8652 0001508  41.3133 330.4643 15.37162404    17
STARLINK-4531           
1 53425C 22097AP  22280.06923611 -.01154261  00000-0 -33280-1 0  2803
2 53425  53.2170 324.9469 0001558  42.4986 185.2939 15.36317651    14
STARLINK-4558           
1 53426C 22097AQ  22280.08451389 -.00037284  00000-0 -26507-3 0  2804
2 53426  53.2162 321.5552 0004120 358.4843 111.2366 15.73228915    10
STARLINK-4541           
1 53427C 22097AR  22280.09145833 -.01168340  00000-0 -33104-1 0  2808
2 53427  53.2172 324.8585 0001633  33.6062 331.2902 15.36876542    19
STARLINK-4540           
1 53428C 22097AS  22280.08104167 -.00013136  00000-0 -93259-4 0  2804
2 53428  53.2160 321.5710 0004085   2.6828  89.0778 15.73237488    11
STARLINK-4543           
1 53429C 22097AT  22280.07965278 -.00033203  00000-0 -23567-3 0  2803
2 53429  53.2160 321.5787 0003977   4.2711  79.0269 15.73264223    15
STARLINK-4538           
1 53430C 22097AU  22280.08312500 -.00020322  00000-0 -14438-3 0  2805
2 53430  53.2170 321.5605 0003913   2.8953 101.3070 15.73228526    14
STARLINK-4548           
1 53431C 22097AV  22280.08104167 -.00015995  00000-0 -11359-3 0  2803
2 53431  53.2162 321.5715 0004234   3.2663  87.3000 15.73234189    16
STARLINK-4557           
1 53432C 22097AW  22280.08243056 -.00009197  00000-0 -65301-4 0  2809
2 53432  53.2168 321.5607 0004118   3.0291  98.9934 15.73230962    18
STARLINK-4549           
1 53433C 22097AX  22280.08312500 -.00037158  00000-0 -26385-3 0  2807
2 53433  53.2160 321.5591 0003832   5.4517  99.2878 15.73259048    19
STARLINK-4498           
1 53434C 22097AY  22280.08312500 -.00016811  00000-0 -11939-3 0  2800
2 53434  53.2159 321.5545 0004199 359.4935 107.6694 15.73233332    18
STARLINK-4542           
1 53435C 22097AZ  22280.08034722 -.00015588  00000-0 -11063-3 0  2806
2 53435  53.2167 321.5712 0004082   4.9232  84.6909 15.73248380    19
